start=new Date('2022-11-22T00:00:00.000Z').valueOf();
sats=[{"INCLINATION":"53.0545","CLASSIFICATION_TYPE":"U","ARG_OF_PERICENTER":"96.0362","MEAN_MOTION_DDOT":"0.0000000000000","OBJECT_NAME":"STARLINK-2540","LAUNCH_DATE":"2021-04-29","MEAN_MOTION_DOT":"-0.00000051","SEMIMAJOR_AXIS":"6925.361","RA_OF_ASC_NODE":"87.0899","BSTAR":"0.00001548300000","NORAD_CAT_ID":"48290","ELEMENT_SET_NO":"999","APOAPSIS":"548.132","TLE_LINE1":"1 48290U 21036Q   22325.57539455 -.00000051  00000-0  15483-4 0  9994","OBJECT_ID":"2021-036Q","PERIAPSIS":"546.320","RCS_SIZE":"LARGE","PERIOD":"95.592","ECCENTRICITY":"0.00013080","CENTER_NAME":"EARTH","TIME_SYSTEM":"UTC","GP_ID":"218431620","REF_FRAME":"TEME","FILE":"3666658","COUNTRY_CODE":"US","MEAN_ANOMALY":"264.0776","EPOCH":"2022-11-21T13:48:34.089120","REV_AT_EPOCH":"8682","SITE":"AFETR","DECAY_DATE":null,"TLE_LINE2":"2 48290  53.0545  87.0899 0001308  96.0362 264.0776 15.06395990 86829","MEAN_ELEMENT_THEORY":"SGP4","OBJECT_TYPE":"PAYLOAD","EPHEMERIS_TYPE":"0","MEAN_MOTION":"15.06395990"},{"INCLINATION":"53.0548","ARG_OF_PERICENTER":"75.5582","MEAN_MOTION_DDOT":"0.0000000000000","CLASSIFICATION_TYPE":"U","OBJECT_NAME":"STARLINK-2555","SEMIMAJOR_AXIS":"6925.383","MEAN_MOTION_DOT":"-0.00000896","LAUNCH_DATE":"2021-04-29","RA_OF_ASC_NODE":"86.2113","NORAD_CAT_ID":"48291","BSTAR":"-0.00004125900000","ELEMENT_SET_NO":"999","OBJECT_ID":"2021-036R","APOAPSIS":"548.281","TLE_LINE1":"1 48291U 21036R   22325.77075371 -.00000896  00000-0 -41259-4 0  9997","RCS_SIZE":"LARGE","ECCENTRICITY":"0.00014920","PERIOD":"95.593","PERIAPSIS":"546.214","TIME_SYSTEM":"UTC","CENTER_NAME":"EARTH","GP_ID":"218432872","REF_FRAME":"TEME","FILE":"3666658","COUNTRY_CODE":"US","EPOCH":"2022-11-21T18:29:53.120544","MEAN_ANOMALY":"284.5572","REV_AT_EPOCH":"8685","DECAY_DATE":null,"SITE":"AFETR","TLE_LINE2":"2 48291  53.0548  86.2113 0001492  75.5582 284.5572 15.06388864 86859","OBJECT_TYPE":"PAYLOAD","MEAN_ELEMENT_THEORY":"SGP4","EPHEMERIS_TYPE":"0","MEAN_MOTION":"15.06388864"},{"MEAN_ELEMENT_THEORY":"SGP4","OBJECT_TYPE":"PAYLOAD","REV_AT_EPOCH":"8685","SITE":"AFETR","DECAY_DATE":null,"TLE_LINE2":"2 48292  53.0546  86.3471 0001002  79.1665 280.9436 15.06402530 86851","EPHEMERIS_TYPE":"0","MEAN_MOTION":"15.06402530","RA_OF_ASC_NODE":"86.3471","BSTAR":"-0.00001521300000","NORAD_CAT_ID":"48292","ELEMENT_SET_NO":"999","INCLINATION":"53.0546","CLASSIFICATION_TYPE":"U","ARG_OF_PERICENTER":"79.1665","MEAN_MOTION_DDOT":"0.0000000000000","OBJECT_NAME":"STARLINK-2542","LAUNCH_DATE":"2021-04-29","SEMIMAJOR_AXIS":"6925.341","MEAN_MOTION_DOT":"-0.00000508","CENTER_NAME":"EARTH","TIME_SYSTEM":"UTC","GP_ID":"218432619","REF_FRAME":"TEME","FILE":"3666658","COUNTRY_CODE":"US","EPOCH":"2022-11-21T18:45:48.714912","MEAN_ANOMALY":"280.9436","TLE_LINE1":"1 48292U 21036S   22325.78181383 -.00000508  00000-0 -15213-4 0  9991","APOAPSIS":"547.900","OBJECT_ID":"2021-036S","PERIAPSIS":"546.512","RCS_SIZE":"LARGE","ECCENTRICITY":"0.00010020","PERIOD":"95.592"},{"BSTAR":"-0.00003162200000","NORAD_CAT_ID":"48293","ELEMENT_SET_NO":"999","RA_OF_ASC_NODE":"86.2624","OBJECT_NAME":"STARLINK-2550","LAUNCH_DATE":"2021-04-29","MEAN_MOTION_DOT":"-0.00000752","SEMIMAJOR_AXIS":"6925.363","INCLINATION":"53.0549","CLASSIFICATION_TYPE":"U","MEAN_MOTION_DDOT":"0.0000000000000","ARG_OF_PERICENTER":"84.6455","FILE":"3666658","COUNTRY_CODE":"US","MEAN_ANOMALY":"275.4689","EPOCH":"2022-11-21T18:19:15.552480","CENTER_NAME":"EARTH","TIME_SYSTEM":"UTC","GP_ID":"218431370","REF_FRAME":"TEME","APOAPSIS":"548.172","TLE_LINE1":"1 48293U 21036T   22325.76337445 -.00000752  00000-0 -31622-4 0  9995","OBJECT_ID":"2021-036T","PERIAPSIS":"546.285","PERIOD":"95.592","RCS_SIZE":"LARGE","ECCENTRICITY":"0.00013620","MEAN_ELEMENT_THEORY":"SGP4","OBJECT_TYPE":"PAYLOAD","TLE_LINE2":"2 48293  53.0549  86.2624 0001362  84.6455 275.4689 15.06395184 86856","REV_AT_EPOCH":"8685","SITE":"AFETR","DECAY_DATE":null,"MEAN_MOTION":"15.06395184","EPHEMERIS_TYPE":"0"},{"MEAN_MOTION":"15.06399920","EPHEMERIS_TYPE":"0","TLE_LINE2":"2 48294  53.0561  86.8692 0001266  95.9648 264.1486 15.06399920 86834","DECAY_DATE":null,"SITE":"AFETR","REV_AT_EPOCH":"8683","OBJECT_TYPE":"PAYLOAD","MEAN_ELEMENT_THEORY":"SGP4","PERIOD":"95.592","RCS_SIZE":"LARGE","ECCENTRICITY":"0.00012660","PERIAPSIS":"546.337","OBJECT_ID":"2021-036U","TLE_LINE1":"1 48294U 21036U   22325.62698562  .00001829  00000-0  14166-3 0  9998","APOAPSIS":"548.091","MEAN_ANOMALY":"264.1486","COUNTRY_CODE":"US","EPOCH":"2022-11-21T15:02:51.557568","FILE":"3666658","GP_ID":"218432121","REF_FRAME":"TEME","CENTER_NAME":"EARTH","TIME_SYSTEM":"UTC","MEAN_MOTION_DOT":"0.00001829","SEMIMAJOR_AXIS":"6925.349","LAUNCH_DATE":"2021-04-29","OBJECT_NAME":"STARLINK-2533","MEAN_MOTION_DDOT":"0.0000000000000","ARG_OF_PERICENTER":"95.9648","CLASSIFICATION_TYPE":"U","INCLINATION":"53.0561","ELEMENT_SET_NO":"999","NORAD_CAT_ID":"48294","BSTAR":"0.00014166000000","RA_OF_ASC_NODE":"86.8692"},{"RA_OF_ASC_NODE":"87.1907","ELEMENT_SET_NO":"999","BSTAR":"-0.00016523000000","NORAD_CAT_ID":"48295","CLASSIFICATION_TYPE":"U","ARG_OF_PERICENTER":"75.8325","MEAN_MOTION_DDOT":"0.0000000000000","INCLINATION":"53.0542","LAUNCH_DATE":"2021-04-29","MEAN_MOTION_DOT":"-0.00002742","SEMIMAJOR_AXIS":"6925.358","OBJECT_NAME":"STARLINK-2535","REF_FRAME":"TEME","GP_ID":"218432372","CENTER_NAME":"EARTH","TIME_SYSTEM":"UTC","COUNTRY_CODE":"US","EPOCH":"2022-11-21T13:22:01.681824","MEAN_ANOMALY":"284.2830","FILE":"3666658","PERIAPSIS":"546.185","RCS_SIZE":"LARGE","ECCENTRICITY":"0.00014980","PERIOD":"95.592","APOAPSIS":"548.260","TLE_LINE1":"1 48295U 21036V   22325.55696391 -.00002742  00000-0 -16523-3 0  9995","OBJECT_ID":"2021-036V","MEAN_ELEMENT_THEORY":"SGP4","OBJECT_TYPE":"PAYLOAD","SITE":"AFETR","DECAY_DATE":null,"REV_AT_EPOCH":"8682","TLE_LINE2":"2 48295  53.0542  87.1907 0001498  75.8325 284.2830 15.06396947 86824","EPHEMERIS_TYPE":"0","MEAN_MOTION":"15.06396947"},{"EPHEMERIS_TYPE":"0","MEAN_MOTION":"15.06391374","REV_AT_EPOCH":"8685","SITE":"AFETR","DECAY_DATE":null,"TLE_LINE2":"2 48296  53.0550  86.3098 0001397  91.2950 268.8199 15.06391374 86858","MEAN_ELEMENT_THEORY":"SGP4","OBJECT_TYPE":"PAYLOAD","APOAPSIS":"548.207","TLE_LINE1":"1 48296U 21036W   22325.75231579 -.00001262  00000-0 -65885-4 0  9993","OBJECT_ID":"2021-036W","PERIAPSIS":"546.273","ECCENTRICITY":"0.00013970","RCS_SIZE":"LARGE","PERIOD":"95.593","TIME_SYSTEM":"UTC","CENTER_NAME":"EARTH","REF_FRAME":"TEME","GP_ID":"218433120","FILE":"3666658","MEAN_ANOMALY":"268.8199","COUNTRY_CODE":"US","EPOCH":"2022-11-21T18:03:20.084256","INCLINATION":"53.0550","CLASSIFICATION_TYPE":"U","MEAN_MOTION_DDOT":"0.0000000000000","ARG_OF_PERICENTER":"91.2950","OBJECT_NAME":"STARLINK-2546","LAUNCH_DATE":"2021-04-29","SEMIMAJOR_AXIS":"6925.375","MEAN_MOTION_DOT":"-0.00001262","RA_OF_ASC_NODE":"86.3098","BSTAR":"-0.00006588500000","NORAD_CAT_ID":"48296","ELEMENT_SET_NO":"999"},{"EPHEMERIS_TYPE":"0","MEAN_MOTION":"15.06397417","REV_AT_EPOCH":"8685","DECAY_DATE":null,"SITE":"AFETR","TLE_LINE2":"2 48297  53.0561  86.3203 0001414  82.3178 277.7971 15.06397417 86853","OBJECT_TYPE":"PAYLOAD","MEAN_ELEMENT_THEORY":"SGP4","OBJECT_ID":"2021-036X","APOAPSIS":"548.201","TLE_LINE1":"1 48297U 21036X   22325.74863448 -.00000660  00000-0 -25392-4 0  9999","ECCENTRICITY":"0.00014140","RCS_SIZE":"LARGE","PERIOD":"95.592","PERIAPSIS":"546.242","TIME_SYSTEM":"UTC","CENTER_NAME":"EARTH","GP_ID":"218431871","REF_FRAME":"TEME","FILE":"3666658","COUNTRY_CODE":"US","EPOCH":"2022-11-21T17:58:02.019072","MEAN_ANOMALY":"277.7971","INCLINATION":"53.0561","MEAN_MOTION_DDOT":"0.0000000000000","ARG_OF_PERICENTER":"82.3178","CLASSIFICATION_TYPE":"U","OBJECT_NAME":"STARLINK-2544","SEMIMAJOR_AXIS":"6925.356","MEAN_MOTION_DOT":"-0.00000660","LAUNCH_DATE":"2021-04-29","RA_OF_ASC_NODE":"86.3203","NORAD_CAT_ID":"48297","BSTAR":"-0.00002539200000","ELEMENT_SET_NO":"999"},{"MEAN_MOTION":"15.06393857","EPHEMERIS_TYPE":"0","OBJECT_TYPE":"PAYLOAD","MEAN_ELEMENT_THEORY":"SGP4","TLE_LINE2":"2 48298  53.0569  86.9465 0001465  70.0784 290.0362 15.06393857 86835","REV_AT_EPOCH":"8683","DECAY_DATE":null,"SITE":"AFETR","FILE":"3666658","MEAN_ANOMALY":"290.0362","COUNTRY_CODE":"US","EPOCH":"2022-11-21T14:41:38.450112","TIME_SYSTEM":"UTC","CENTER_NAME":"EARTH","REF_FRAME":"TEME","GP_ID":"218431621","OBJECT_ID":"2021-036Y","APOAPSIS":"548.247","TLE_LINE1":"1 48298U 21036Y   22325.61225058 -.00000030  00000-0  16901-4 0  9991","RCS_SIZE":"LARGE","PERIOD":"95.593","ECCENTRICITY":"0.00014650","PERIAPSIS":"546.218","NORAD_CAT_ID":"48298","BSTAR":"0.00001690100000","ELEMENT_SET_NO":"999","RA_OF_ASC_NODE":"86.9465","OBJECT_NAME":"STARLINK-2559","SEMIMAJOR_AXIS":"6925.367","MEAN_MOTION_DOT":"-0.00000030","LAUNCH_DATE":"2021-04-29","INCLINATION":"53.0569","ARG_OF_PERICENTER":"70.0784","MEAN_MOTION_DDOT":"0.0000000000000","CLASSIFICATION_TYPE":"U"},{"CLASSIFICATION_TYPE":"U","MEAN_MOTION_DDOT":"0.0000000000000","ARG_OF_PERICENTER":"85.8609","INCLINATION":"53.0552","LAUNCH_DATE":"2021-04-29","SEMIMAJOR_AXIS":"6925.310","MEAN_MOTION_DOT":"-0.00000019","OBJECT_NAME":"STARLINK-2557","RA_OF_ASC_NODE":"86.9421","ELEMENT_SET_NO":"999","BSTAR":"0.00001764400000","NORAD_CAT_ID":"48299","PERIAPSIS":"546.227","ECCENTRICITY":"0.00013680","RCS_SIZE":"LARGE","PERIOD":"95.591","TLE_LINE1":"1 48299U 21036Z   22325.60855878 -.00000019  00000-0  17644-4 0  9992","APOAPSIS":"548.122","OBJECT_ID":"2021-036Z","GP_ID":"218432873","REF_FRAME":"TEME","CENTER_NAME":"EARTH","TIME_SYSTEM":"UTC","EPOCH":"2022-11-21T14:36:19.478592","COUNTRY_CODE":"US","MEAN_ANOMALY":"274.2537","FILE":"3666658","SITE":"AFETR","DECAY_DATE":null,"REV_AT_EPOCH":"8683","TLE_LINE2":"2 48299  53.0552  86.9421 0001368  85.8609 274.2537 15.06412638 86839","MEAN_ELEMENT_THEORY":"SGP4","OBJECT_TYPE":"PAYLOAD","EPHEMERIS_TYPE":"0","MEAN_MOTION":"15.06412638"}];
